NORAD_CAT_ID,OBJECT_NAME,OBJECT_TYPE,EPOCH,MEAN_MOTION,ECCENTRICITY,INCLINATION,RA_OF_ASC_NODE,ARG_OF_PERICENTER,MEAN_ANOMALY,BSTAR,MEAN_MOTION_DOT,MEAN_MOTION_DDOT,TLE_LINE0,TLE_LINE1,TLE_LINE2,SEMIMAJOR_AXIS,PERIOD,APOGEE,PERIGEE,DECAYED
51794.0,STARLINK-3573,PAYLOAD,2023-06-09 10:16:01,15.08839755,9.98e-05,53.2156,177.4281,83.8451,276.2655,5.3618e-05,5.66e-06,0.0,0 STARLINK-3573,1 51794U 22017AC  23160.42779871  .00000566  00000-0  53618-4 0  9999,2 51794  53.2156 177.4281 0000998  83.8451 276.2655 15.08839755 72312,6917.881,95.438,540.437,539.056,0.0
51794.0,STARLINK-3573,PAYLOAD,2023-06-10 10:06:49,15.08838588,9.93e-05,53.2154,172.967,82.432,277.6785,4.1895e-05,3.79e-06,0.0,0 STARLINK-3573,1 51794U 22017AC  23161.42140081  .00000379  00000-0  41895-4 0  9991,2 51794  53.2154 172.9670 0000993  82.4320 277.6785 15.08838588 72465,6917.885,95.438,540.437,539.063,0.0
51794.0,STARLINK-3573,PAYLOAD,2023-06-10 18:03:44,15.08840063,0.0001003,53.2156,171.4801,82.4909,277.6197,4.197e-05,3.8e-06,0.0,0 STARLINK-3573,1 51794U 22017AC  23161.75259994  .00000380  00000-0  41970-4 0  9997,2 51794  53.2156 171.4801 0001003  82.4909 277.6197 15.08840063 72517,6917.88,95.438,540.439,539.051,0.0
51794.0,STARLINK-3573,PAYLOAD,2023-06-11 09:57:35,15.08841905,0.0001019,53.2155,168.5064,82.3855,277.7253,4.7583e-05,4.7e-06,0.0,0 STARLINK-3573,1 51794U 22017AC  23162.41499837  .00000470  00000-0  47583-4 0  9999,2 51794  53.2155 168.5064 0001019  82.3855 277.7253 15.08841905 72611,6917.875,95.437,540.444,539.035,0.0
51794.0,STARLINK-3573,PAYLOAD,2023-06-11 17:54:31,15.08841189,0.0001024,53.2156,167.0195,81.8216,278.2892,4.9401e-05,4.99e-06,0.0,0 STARLINK-3573,1 51794U 22017AC  23162.74619842  .00000499  00000-0  49401-4 0  9997,2 51794  53.2156 167.0195 0001024  81.8216 278.2892 15.08841189 72666,6917.877,95.437,540.45,539.033,0.0
51794.0,STARLINK-3573,PAYLOAD,2023-06-12 06:37:36,15.08840598,0.0001039,53.2157,164.6405,82.3365,277.7745,4.2078e-05,3.82e-06,0.0,0 STARLINK-3573,1 51794U 22017AC  23163.27611872  .00000382  00000-0  42078-4 0  9995,2 51794  53.2157 164.6405 0001039  82.3365 277.7745 15.08840598 72744,6917.879,95.438,540.462,539.025,0.0
51794.0,STARLINK-3573,PAYLOAD,2023-06-13 04:53:00,15.08836795,0.0001074,53.2159,160.4768,86.0666,274.0449,-1.1548e-05,-4.72e-06,0.0,0 STARLINK-3573,1 51794U 22017AC  23164.20348343 -.00000472  00000-0 -11548-4 0  9999,2 51794  53.2159 160.4768 0001074  86.0666 274.0449 15.08836795 72886,6917.89,95.438,540.498,539.012,0.0
51794.0,STARLINK-3573,PAYLOAD,2023-06-14 06:19:10,15.08840155,0.0001083,53.2159,155.7199,83.2599,276.8516,3.1214e-05,2.09e-06,0.0,0 STARLINK-3573,1 51794U 22017AC  23165.26332134  .00000209  00000-0  31214-4 0  9995,2 51794  53.2159 155.7199 0001083  83.2599 276.8516 15.08840155 73044,6917.88,95.438,540.494,538.996,0.0
51794.0,STARLINK-3573,PAYLOAD,2023-06-14 15:51:30,15.08836546,0.0001089,53.2157,153.9361,82.364,277.7476,3.1412e-05,2.12e-06,0.0,0 STARLINK-3573,1 51794U 22017AC  23165.66076413  .00000212  00000-0  31412-4 0  9998,2 51794  53.2157 153.9361 0001089  82.3640 277.7476 15.08836546 73107,6917.891,95.438,540.509,539.003,0.0
51794.0,STARLINK-3573,PAYLOAD,2023-06-15 02:59:12,15.08834544,0.0001155,53.2165,151.8553,86.1195,273.993,2.9507e-05,1.82e-06,0.0,0 STARLINK-3573,1 51794U 22017AC  23166.12444701  .00000182  00000-0  29507-4 0  9997,2 51794  53.2165 151.8553 0001155  86.1195 273.9930 15.08834544 73173,6917.897,95.438,540.561,538.963,0.0
51794.0,STARLINK-3573,PAYLOAD,2023-06-15 07:45:21,15.08835148,0.000116,53.2165,150.9629,85.0963,275.0161,3.3348e-05,2.43e-06,0.0,0 STARLINK-3573,1 51794U 22017AC  23166.32316709  .00000243  00000-0  33348-4 0  9991,2 51794  53.2165 150.9629 0001160  85.0963 275.0161 15.08835148 73208,6917.895,95.438,540.563,538.958,0.0
51794.0,STARLINK-3573,PAYLOAD,2023-06-15 15:42:17,15.08833908,0.0001164,53.2165,149.4762,84.5552,275.5573,1.691e-05,-1.9e-07,0.0,0 STARLINK-3573,1 51794U 22017AC  23166.65436957 -.00000019  00000-0  16910-4 0  9993,2 51794  53.2165 149.4762 0001164  84.5552 275.5573 15.08833908 73250,6917.899,95.438,540.569,538.959,0.0
51794.0,STARLINK-3573,PAYLOAD,2023-06-16 07:36:08,15.08839566,0.0001196,53.2163,146.5024,84.1665,275.9464,3.6196e-05,2.88e-06,0.0,0 STARLINK-3573,1 51794U 22017AC  23167.31676731  .00000288  00000-0  36196-4 0  9998,2 51794  53.2163 146.5024 0001196  84.1665 275.9464 15.08839566 73353,6917.882,95.438,540.574,538.919,0.0
51794.0,STARLINK-3573,PAYLOAD,2023-06-16 15:33:04,15.08840152,0.0001203,53.2165,145.0157,83.7534,276.3596,5.6252e-05,6.08e-06,0.0,0 STARLINK-3573,1 51794U 22017AC  23167.64796645  .00000608  00000-0  56252-4 0  9992,2 51794  53.2165 145.0157 0001203  83.7534 276.3596 15.08840152 73405,6917.88,95.438,540.577,538.913,0.0
51794.0,STARLINK-3573,PAYLOAD,2023-06-17 09:02:18,15.08842631,0.0001236,53.2162,141.744,82.5909,277.5224,7.8479e-05,9.61e-06,0.0,0 STARLINK-3573,1 51794U 22017AC  23168.37660430  .00000961  00000-0  78479-4 0  9992,2 51794  53.2162 141.7440 0001236  82.5909 277.5224 15.08842631 73516,6917.872,95.437,540.592,538.882,0.0
51794.0,STARLINK-3573,PAYLOAD,2023-06-17 15:23:51,15.08837335,0.0001206,53.216,140.5544,86.8285,273.2845,3.0901e-05,2.04e-06,0.0,0 STARLINK-3573,1 51794U 22017AC  23168.64156920  .00000204  00000-0  30901-4 0  9994,2 51794  53.2160 140.5544 0001206  86.8285 273.2845 15.08837335 73558,6917.889,95.438,540.588,538.919,0.0
51794.0,STARLINK-3573,PAYLOAD,2023-06-18 07:17:43,15.08836492,0.0001237,53.216,137.5794,90.2919,269.8215,-8.2586e-06,-4.19e-06,0.0,0 STARLINK-3573,1 51794U 22017AC  23169.30397282 -.00000419  00000-0 -82586-5 0  9993,2 51794  53.2160 137.5794 0001237  90.2919 269.8215 15.08836492 73654,6917.891,95.438,540.612,538.9,0.0
51794.0,STARLINK-3573,PAYLOAD,2023-06-18 15:14:39,15.08827522,0.0001295,53.2165,136.0915,91.9982,268.1159,-8.3046e-05,-1.609e-05,0.0,0 STARLINK-3573,1 51794U 22017AC  23169.63518211 -.00001609  00000-0 -83046-4 0  9999,2 51794  53.2165 136.0915 0001295  91.9982 268.1159 15.08827522 73709,6917.919,95.438,540.679,538.888,0.0
51794.0,STARLINK-3573,PAYLOAD,2023-06-19 07:08:31,15.08830309,0.0001381,53.2161,133.1194,100.3588,259.7559,-5.0747e-05,-1.095e-05,0.0,0 STARLINK-3573,1 51794U 22017AC  23170.29758687 -.00001095  00000-0 -50747-4 0  9997,2 51794  53.2161 133.1194 0001381 100.3588 259.7559 15.08830309 73803,6917.91,95.438,540.73,538.82,0.0
51794.0,STARLINK-3573,PAYLOAD,2023-06-19 15:05:26,15.08834161,0.0001367,53.2167,131.6326,99.9268,260.1878,2.2447e-05,6.9e-07,0.0,0 STARLINK-3573,1 51794U 22017AC  23170.62878377  .00000069  00000-0  22447-4 0  9997,2 51794  53.2167 131.6326 0001367  99.9268 260.1878 15.08834161 73856,6917.898,95.438,540.709,538.818,0.0
51794.0,STARLINK-3573,PAYLOAD,2023-06-20 06:59:17,15.08844305,0.0001337,53.2164,128.6597,97.1164,262.9981,0.00012271,1.666e-05,0.0,0 STARLINK-3573,1 51794U 22017AC  23171.29117630  .00001666  00000-0  12271-3 0  9996,2 51794  53.2164 128.6597 0001337  97.1164 262.9981 15.08844305 73958,6917.867,95.437,540.657,538.807,0.0
51794.0,STARLINK-3573,PAYLOAD,2023-06-21 02:03:55,15.08813269,0.0001389,53.2163,125.0916,104.1774,255.9372,0.00062817,9.716e-05,0.0,0 STARLINK-3573,1 51794U 22017AC  23172.08606457  .00009716  00000-0  62817-3 0  9999,2 51794  53.2163 125.0916 0001389 104.1774 255.9372 15.08813269 74071,6917.962,95.439,540.788,538.866,0.0
51794.0,STARLINK-3573,PAYLOAD,2023-06-21 06:50:04,15.08851815,0.0001378,53.2162,124.1997,96.6148,263.5001,0.00021859,3.194e-05,0.0,0 STARLINK-3573,1 51794U 22017AC  23172.28477051  .00003194  00000-0  21859-3 0  9992,2 51794  53.2162 124.1997 0001378  96.6148 263.5001 15.08851815 74104,6917.844,95.437,540.663,538.756,0.0
51794.0,STARLINK-3573,PAYLOAD,2023-06-22 03:30:05,15.08845343,0.0001268,53.2168,120.3344,96.6644,263.4492,1.0114e-05,-1.27e-06,0.0,0 STARLINK-3573,1 51794U 22017AC  23173.14589878 -.00000127  00000-0  10114-4 0  9996,2 51794  53.2168 120.3344 0001268  96.6644 263.4492 15.08845343 74239,6917.864,95.437,540.606,538.852,0.0
51794.0,STARLINK-3573,PAYLOAD,2023-06-23 06:31:38,15.08850179,0.0001218,53.2168,115.2784,92.6094,267.5037,-1.4512e-05,-5.19e-06,0.0,0 STARLINK-3573,1 51794U 22017AC  23174.27197279 -.00000519  00000-0 -14512-4 0  9993,2 51794  53.2168 115.2784 0001218  92.6094 267.5037 15.08850179 74402,6917.849,95.437,540.557,538.872,0.0
51794.0,STARLINK-3573,PAYLOAD,2023-06-24 01:36:16,15.08837327,0.0001239,53.2169,111.7096,93.1995,266.9139,6.689e-05,7.77e-06,0.0,0 STARLINK-3573,1 51794U 22017AC  23175.06685964  .00000777  00000-0  66890-4 0  9994,2 51794  53.2169 111.7096 0001239  93.1995 266.9139 15.08837327 74528,6917.889,95.438,540.611,538.896,0.0
51794.0,STARLINK-3573,PAYLOAD,2023-06-25 01:27:04,15.08818535,0.0001439,53.2176,107.2508,76.4031,283.7121,0.00027067,4.02e-05,0.0,0 STARLINK-3573,1 51794U 22017AC  23176.06046634  .00004020  00000-0  27067-3 0  9997,2 51794  53.2176 107.2508 0001439  76.4031 283.7121 15.08818535 74675,6917.946,95.439,540.806,538.816,0.0
51794.0,STARLINK-3573,PAYLOAD,2023-06-25 04:37:49,15.08844474,0.0001192,53.2169,106.6557,90.7223,269.3905,3.2095e-05,2.23e-06,0.0,0 STARLINK-3573,1 51794U 22017AC  23176.19293742  .00000223  00000-0  32095-4 0  9994,2 51794  53.2169 106.6557 0001192  90.7223 269.3905 15.08844474 74695,6917.867,95.437,540.556,538.907,0.0
51794.0,STARLINK-3573,PAYLOAD,2023-06-26 12:25:32,15.08842555,9.61e-05,53.2164,100.7085,95.1095,265.0007,5.8211e-06,-1.95e-06,0.0,0 STARLINK-3573,1 51794U 22017AC  23177.51773938 -.00000195  00000-0  58211-5 0  9999,2 51794  53.2164 100.7085 0000961  95.1095 265.0007 15.08842555 74896,6917.873,95.437,540.402,539.073,0.0
51794.0,STARLINK-3573,PAYLOAD,2023-06-27 15:27:06,15.0884078,0.0001272,53.217,95.6541,83.4274,276.6863,9.9952e-05,1.303e-05,0.0,0 STARLINK-3573,1 51794U 22017AC  23178.64382129  .00001303  00000-0  99952-4 0  9999,2 51794  53.2170  95.6541 0001272  83.4274 276.6863 15.08840780 75063,6917.878,95.438,540.623,538.863,0.0
